CCSDS_OMM_VERS = 2.0
CREATION_DATE  = 
ORIGINATOR     = 

OBJECT_NAME    = STARLINK-36995
OBJECT_ID      = 2026-049B
CENTER_NAME    = EARTH
REF_FRAME      = TEME
TIME_SYSTEM    = UTC
MEAN_ELEMENT_THEORY = SGP/SGP4

EPOCH          = 2026-04-02T04:00:03.000096
MEAN_MOTION    = 15.75266614
ECCENTRICITY   = .0000785
INCLINATION    = 97.2843
RA_OF_ASC_NODE = 112.5958
ARG_OF_PERICENTER = 84.3081
MEAN_ANOMALY   = 350.3531

EPHEMERIS_TYPE = 0
CLASSIFICATION_TYPE = U
NORAD_CAT_ID   = 68143
ELEMENT_SET_NO = 999
REV_AT_EPOCH   = 439
BSTAR          = -.11705E-2
MEAN_MOTION_DOT = -.171814E-2
MEAN_MOTION_DDOT = 0

CCSDS_OMM_VERS = 2.0
CREATION_DATE  = 
ORIGINATOR     = 

OBJECT_NAME    = STARLINK-37020
OBJECT_ID      = 2026-049C
CENTER_NAME    = EARTH
REF_FRAME      = TEME
TIME_SYSTEM    = UTC
MEAN_ELEMENT_THEORY = SGP/SGP4

EPOCH          = 2026-04-01T23:00:17.441280
MEAN_MOTION    = 15.80888472
ECCENTRICITY   = .00014265
INCLINATION    = 97.2838
RA_OF_ASC_NODE = 112.3889
ARG_OF_PERICENTER = 87.1845
MEAN_ANOMALY   = 272.9586

EPHEMERIS_TYPE = 0
CLASSIFICATION_TYPE = U
NORAD_CAT_ID   = 68144
ELEMENT_SET_NO = 999
REV_AT_EPOCH   = 308
BSTAR          = .5424565E-3
MEAN_MOTION_DOT = .105376E-2
MEAN_MOTION_DDOT = 0

CCSDS_OMM_VERS = 2.0
CREATION_DATE  = 
ORIGINATOR     = 

OBJECT_NAME    = STARLINK-36244
OBJECT_ID      = 2026-049D
CENTER_NAME    = EARTH
REF_FRAME      = TEME
TIME_SYSTEM    = UTC
MEAN_ELEMENT_THEORY = SGP/SGP4

EPOCH          = 2026-04-02T04:00:55.145952
MEAN_MOTION    = 15.75257162
ECCENTRICITY   = .0001197
INCLINATION    = 97.2851
RA_OF_ASC_NODE = 112.5628
ARG_OF_PERICENTER = 96.3997
MEAN_ANOMALY   = 263.7405

EPHEMERIS_TYPE = 0
CLASSIFICATION_TYPE = U
NORAD_CAT_ID   = 68145
ELEMENT_SET_NO = 999
REV_AT_EPOCH   = 311
BSTAR          = .11738E-2
MEAN_MOTION_DOT = .179196E-2
MEAN_MOTION_DDOT = 0

CCSDS_OMM_VERS = 2.0
CREATION_DATE  = 
ORIGINATOR     = 

OBJECT_NAME    = STARLINK-36980
OBJECT_ID      = 2026-049E
CENTER_NAME    = EARTH
REF_FRAME      = TEME
TIME_SYSTEM    = UTC
MEAN_ELEMENT_THEORY = SGP/SGP4

EPOCH          = 2026-04-02T03:32:40.079040
MEAN_MOTION    = 15.80920158
ECCENTRICITY   = .0001296
INCLINATION    = 97.2838
RA_OF_ASC_NODE = 112.5904
ARG_OF_PERICENTER = 108.6361
MEAN_ANOMALY   = 251.5048

EPHEMERIS_TYPE = 0
CLASSIFICATION_TYPE = U
NORAD_CAT_ID   = 68146
ELEMENT_SET_NO = 999
REV_AT_EPOCH   = 311
BSTAR          = .11459E-2
MEAN_MOTION_DOT = .22622E-2
MEAN_MOTION_DDOT = 0

CCSDS_OMM_VERS = 2.0
CREATION_DATE  = 
ORIGINATOR     = 

OBJECT_NAME    = STARLINK-37055
OBJECT_ID      = 2026-049F
CENTER_NAME    = EARTH
REF_FRAME      = TEME
TIME_SYSTEM    = UTC
MEAN_ELEMENT_THEORY = SGP/SGP4

EPOCH          = 2026-04-02T03:34:49.947744
MEAN_MOTION    = 15.80911815
ECCENTRICITY   = .0002222
INCLINATION    = 97.2840
RA_OF_ASC_NODE = 112.5886
ARG_OF_PERICENTER = 129.7558
MEAN_ANOMALY   = 230.3907

EPHEMERIS_TYPE = 0
CLASSIFICATION_TYPE = U
NORAD_CAT_ID   = 68147
ELEMENT_SET_NO = 999
REV_AT_EPOCH   = 311
BSTAR          = .94265E-3
MEAN_MOTION_DOT = .185121E-2
MEAN_MOTION_DDOT = 0

CCSDS_OMM_VERS = 2.0
CREATION_DATE  = 
ORIGINATOR     = 

OBJECT_NAME    = STARLINK-36981
OBJECT_ID      = 2026-049G
CENTER_NAME    = EARTH
REF_FRAME      = TEME
TIME_SYSTEM    = UTC
MEAN_ELEMENT_THEORY = SGP/SGP4

EPOCH          = 2026-04-02T03:30:30.268224
MEAN_MOTION    = 15.80888725
ECCENTRICITY   = .0001921
INCLINATION    = 97.2837
RA_OF_ASC_NODE = 112.5919
ARG_OF_PERICENTER = 124.7666
MEAN_ANOMALY   = 235.3784

EPHEMERIS_TYPE = 0
CLASSIFICATION_TYPE = U
NORAD_CAT_ID   = 68148
ELEMENT_SET_NO = 999
REV_AT_EPOCH   = 311
BSTAR          = .69374E-3
MEAN_MOTION_DOT = .135274E-2
MEAN_MOTION_DDOT = 0

CCSDS_OMM_VERS = 2.0
CREATION_DATE  = 
ORIGINATOR     = 

OBJECT_NAME    = STARLINK-36992
OBJECT_ID      = 2026-049H
CENTER_NAME    = EARTH
REF_FRAME      = TEME
TIME_SYSTEM    = UTC
MEAN_ELEMENT_THEORY = SGP/SGP4

EPOCH          = 2026-04-02T03:29:25.314432
MEAN_MOTION    = 15.80886918
ECCENTRICITY   = .0002009
INCLINATION    = 97.2837
RA_OF_ASC_NODE = 112.5932
ARG_OF_PERICENTER = 123.4639
MEAN_ANOMALY   = 236.6822

EPHEMERIS_TYPE = 0
CLASSIFICATION_TYPE = U
NORAD_CAT_ID   = 68149
ELEMENT_SET_NO = 999
REV_AT_EPOCH   = 311
BSTAR          = .66867E-3
MEAN_MOTION_DOT = .130298E-2
MEAN_MOTION_DDOT = 0

CCSDS_OMM_VERS = 2.0
CREATION_DATE  = 
ORIGINATOR     = 

OBJECT_NAME    = STARLINK-37060
OBJECT_ID      = 2026-049J
CENTER_NAME    = EARTH
REF_FRAME      = TEME
TIME_SYSTEM    = UTC
MEAN_ELEMENT_THEORY = SGP/SGP4

EPOCH          = 2026-04-02T03:28:20.287200
MEAN_MOTION    = 15.80928059
ECCENTRICITY   = .0001856
INCLINATION    = 97.2835
RA_OF_ASC_NODE = 112.5942
ARG_OF_PERICENTER = 104.8221
MEAN_ANOMALY   = 255.3253

EPHEMERIS_TYPE = 0
CLASSIFICATION_TYPE = U
NORAD_CAT_ID   = 68150
ELEMENT_SET_NO = 999
REV_AT_EPOCH   = 311
BSTAR          = .11511E-2
MEAN_MOTION_DOT = .22736E-2
MEAN_MOTION_DDOT = 0

CCSDS_OMM_VERS = 2.0
CREATION_DATE  = 
ORIGINATOR     = 

OBJECT_NAME    = STARLINK-37073
OBJECT_ID      = 2026-049K
CENTER_NAME    = EARTH
REF_FRAME      = TEME
TIME_SYSTEM    = UTC
MEAN_ELEMENT_THEORY = SGP/SGP4

EPOCH          = 2026-04-02T04:00:03.000096
MEAN_MOTION    = 15.75247719
ECCENTRICITY   = .000114
INCLINATION    = 97.2838
RA_OF_ASC_NODE = 112.6099
ARG_OF_PERICENTER = 74.0979
MEAN_ANOMALY   = 32.5697

EPHEMERIS_TYPE = 0
CLASSIFICATION_TYPE = U
NORAD_CAT_ID   = 68151
ELEMENT_SET_NO = 999
REV_AT_EPOCH   = 439
BSTAR          = -.10412E-2
MEAN_MOTION_DOT = -.15306E-2
MEAN_MOTION_DDOT = 0

CCSDS_OMM_VERS = 2.0
CREATION_DATE  = 
ORIGINATOR     = 

OBJECT_NAME    = STARLINK-37049
OBJECT_ID      = 2026-049L
CENTER_NAME    = EARTH
REF_FRAME      = TEME
TIME_SYSTEM    = UTC
MEAN_ELEMENT_THEORY = SGP/SGP4

EPOCH          = 2026-04-02T03:26:10.314816
MEAN_MOTION    = 15.80875119
ECCENTRICITY   = .000185
INCLINATION    = 97.2838
RA_OF_ASC_NODE = 112.5969
ARG_OF_PERICENTER = 111.4086
MEAN_ANOMALY   = 248.7380

EPHEMERIS_TYPE = 0
CLASSIFICATION_TYPE = U
NORAD_CAT_ID   = 68152
ELEMENT_SET_NO = 999
REV_AT_EPOCH   = 311
BSTAR          = .14252E-2
MEAN_MOTION_DOT = .282656E-2
MEAN_MOTION_DDOT = 0

CCSDS_OMM_VERS = 2.0
CREATION_DATE  = 
ORIGINATOR     = 

OBJECT_NAME    = STARLINK-37072
OBJECT_ID      = 2026-049M
CENTER_NAME    = EARTH
REF_FRAME      = TEME
TIME_SYSTEM    = UTC
MEAN_ELEMENT_THEORY = SGP/SGP4

EPOCH          = 2026-04-02T04:00:03.000096
MEAN_MOTION    = 15.75245536
ECCENTRICITY   = .0001108
INCLINATION    = 97.2844
RA_OF_ASC_NODE = 112.6018
ARG_OF_PERICENTER = 72.8856
MEAN_ANOMALY   = 13.7997

EPHEMERIS_TYPE = 0
CLASSIFICATION_TYPE = U
NORAD_CAT_ID   = 68153
ELEMENT_SET_NO = 999
REV_AT_EPOCH   = 439
BSTAR          = -.10936E-2
MEAN_MOTION_DOT = -.160605E-2
MEAN_MOTION_DDOT = 0

CCSDS_OMM_VERS = 2.0
CREATION_DATE  = 
ORIGINATOR     = 

OBJECT_NAME    = STARLINK-36241
OBJECT_ID      = 2026-049N
CENTER_NAME    = EARTH
REF_FRAME      = TEME
TIME_SYSTEM    = UTC
MEAN_ELEMENT_THEORY = SGP/SGP4

EPOCH          = 2026-04-02T03:55:19.796448
MEAN_MOTION    = 15.75250125
ECCENTRICITY   = .0001129
INCLINATION    = 97.2850
RA_OF_ASC_NODE = 112.5683
ARG_OF_PERICENTER = 99.0087
MEAN_ANOMALY   = 261.1306

EPHEMERIS_TYPE = 0
CLASSIFICATION_TYPE = U
NORAD_CAT_ID   = 68154
ELEMENT_SET_NO = 999
REV_AT_EPOCH   = 311
BSTAR          = .10882E-2
MEAN_MOTION_DOT = .1658E-2
MEAN_MOTION_DDOT = 0

