STARLINK-36995          
1 68143U 26049B   26092.16670139 -.00171814  00000+0 -11705-2 0  9994
2 68143  97.2843 112.5958 0000785  84.3081 350.3531 15.75266614  4391
STARLINK-37020          
1 68144U 26049C   26091.95853520  .00105376  00000+0  54246-3 0  9994
2 68144  97.2838 112.3889 0001426  87.1845 272.9586 15.80888472  3081
STARLINK-36244          
1 68145U 26049D   26092.16730493  .00179196  00000+0  11738-2 0  9991
2 68145  97.2851 112.5628 0001197  96.3997 263.7405 15.75257162  3117
STARLINK-36980          
1 68146U 26049E   26092.14768610  .00226220  00000+0  11459-2 0  9993
2 68146  97.2838 112.5904 0001296 108.6361 251.5048 15.80920158  3118
STARLINK-37055          
1 68147U 26049F   26092.14918921  .00185121  00000+0  94265-3 0  9997
2 68147  97.2840 112.5886 0002222 129.7558 230.3907 15.80911815  3112
STARLINK-36981          
1 68148U 26049G   26092.14618366  .00135274  00000+0  69374-3 0  9995
2 68148  97.2837 112.5919 0001921 124.7666 235.3784 15.80888725  3117
STARLINK-36992          
1 68149U 26049H   26092.14543188  .00130298  00000+0  66867-3 0  9990
2 68149  97.2837 112.5932 0002009 123.4639 236.6822 15.80886918  3116
STARLINK-37060          
1 68150U 26049J   26092.14467925  .00227360  00000+0  11511-2 0  9998
2 68150  97.2835 112.5942 0001856 104.8221 255.3253 15.80928059  3115
STARLINK-37073          
1 68151U 26049K   26092.16670139 -.00153060  00000+0 -10412-2 0  9990
2 68151  97.2838 112.6099 0001140  74.0979  32.5697 15.75247719  4396
STARLINK-37049          
1 68152U 26049L   26092.14317494  .00282656  00000+0  14252-2 0  9999
2 68152  97.2838 112.5969 0001850 111.4086 248.7380 15.80875119  3111
STARLINK-37072          
1 68153U 26049M   26092.16670139 -.00160605  00000+0 -10936-2 0  9996
2 68153  97.2844 112.6018 0001108  72.8856  13.7997 15.75245536  4399
STARLINK-36241          
1 68154U 26049N   26092.16342357  .00165800  00000+0  10882-2 0  9995
2 68154  97.2850 112.5683 0001129  99.0087 261.1306 15.75250125  3116
